{
  "norad_id": 59380,
  "name": "STARLINK-31680",
  "history": [
    {
      "epoch": "2026-03-28T15:28:27.127488Z",
      "apogee_km": 476.1148279674944,
      "perigee_km": 474.35077058116076,
      "latitude_deg": -2.4926166780084055e-05,
      "longitude_deg": 112.27391150443374,
      "height_km": 476.0355998741497,
      "semi_major_axis_km": 6853.369799274327,
      "eccentricity": 0.0001287,
      "inclination_deg": 53.16,
      "raan_deg": 170.4492,
      "arg_perigee_deg": 83.7996,
      "mean_anomaly_deg": 276.3151,
      "mean_motion_rev_day": 15.30194062
    },
    {
      "epoch": "2026-03-29T05:34:56.023104Z",
      "apogee_km": 476.191938236012,
      "perigee_km": 474.29629301942896,
      "latitude_deg": 8.493668721726543e-06,
      "longitude_deg": -102.6566580795133,
      "height_km": 476.02232891047447,
      "semi_major_axis_km": 6853.381115627721,
      "eccentricity": 0.0001383,
      "inclination_deg": 53.1599,
      "raan_deg": 167.7184,
      "arg_perigee_deg": 82.7443,
      "mean_anomaly_deg": 277.3715,
      "mean_motion_rev_day": 15.30190272
    },
    {
      "epoch": "2026-03-30T05:05:44.016000Z",
      "apogee_km": 476.1372511593936,
      "perigee_km": 474.32083502333353,
      "latitude_deg": -4.0517527421697006e-05,
      "longitude_deg": -100.87232256609833,
      "height_km": 476.15477783364025,
      "semi_major_axis_km": 6853.366043091363,
      "eccentricity": 0.00013252,
      "inclination_deg": 53.1594,
      "raan_deg": 163.1684,
      "arg_perigee_deg": 91.7538,
      "mean_anomaly_deg": 268.3614,
      "mean_motion_rev_day": 15.3019532
    },
    {
      "epoch": "2026-03-30T14:30:03.378528Z",
      "apogee_km": 476.1381541511246,
      "perigee_km": 474.35833000375806,
      "latitude_deg": 9.583090033236393e-06,
      "longitude_deg": 115.83897284573277,
      "height_km": 475.9810747766856,
      "semi_major_axis_km": 6853.385242077441,
      "eccentricity": 0.00012985,
      "inclination_deg": 53.1599,
      "raan_deg": 161.3466,
      "arg_perigee_deg": 79.3004,
      "mean_anomaly_deg": 280.8143,
      "mean_motion_rev_day": 15.3018889
    },
    {
      "epoch": "2026-03-31T10:52:44.729472Z",
      "apogee_km": 476.13726866278375,
      "perigee_km": 474.33414630344396,
      "latitude_deg": -3.64302582585992e-05,
      "longitude_deg": 165.3880430506695,
      "height_km": 475.98825334771476,
      "semi_major_axis_km": 6853.372707483113,
      "eccentricity": 0.00013155,
      "inclination_deg": 53.1604,
      "raan_deg": 157.4049,
      "arg_perigee_deg": 80.7101,
      "mean_anomaly_deg": 279.4048,
      "mean_motion_rev_day": 15.30193088
    },
    {
      "epoch": "2026-04-01T10:23:32.894304Z",
      "apogee_km": 476.12141413440986,
      "perigee_km": 474.3806535738113,
      "latitude_deg": -1.281689663636826e-05,
      "longitude_deg": 167.17131497770524,
      "height_km": 476.11864330754025,
      "semi_major_axis_km": 6853.38803385411,
      "eccentricity": 0.000127,
      "inclination_deg": 53.1608,
      "raan_deg": 152.8545,
      "arg_perigee_deg": 87.9885,
      "mean_anomaly_deg": 272.1261,
      "mean_motion_rev_day": 15.30187955
    }
  ]
}